[{"OBJECT_NAME":"STARLINK-3588","OBJECT_ID":"2022-022T","EPOCH":"2026-03-09T05:17:43.014336","MEAN_MOTION":15.08857613,"ECCENTRICITY":0.00015494,"INCLINATION":53.2198,"RA_OF_ASC_NODE":11.2242,"ARG_OF_PERICENTER":99.0191,"MEAN_ANOMALY":261.0976,"EPHEMERIS_TYPE":0,"CLASSIFICATION_TYPE":"U","NORAD_CAT_ID":51869,"ELEMENT_SET_NO":999,"REV_AT_EPOCH":22304,"BSTAR":0.00023470848,"MEAN_MOTION_DOT":3.451e-5,"MEAN_MOTION_DDOT":0},{"OBJECT_NAME":"OBJECT B","OBJECT_ID":"2025-013B","EPOCH":"2026-03-09T22:32:54.215232","MEAN_MOTION":15.10568465,"ECCENTRICITY":0.00132175,"INCLINATION":97.6475,"RA_OF_ASC_NODE":238.3035,"ARG_OF_PERICENTER":355.2799,"MEAN_ANOMALY":4.8303,"EPHEMERIS_TYPE":0,"CLASSIFICATION_TYPE":"U","NORAD_CAT_ID":62730,"ELEMENT_SET_NO":999,"REV_AT_EPOCH":6234,"BSTAR":0.00034549224,"MEAN_MOTION_DOT":5.648e-5,"MEAN_MOTION_DDOT":0}]
